[
    {
        "Altitude(m)": 604983.0528979974,
        "Argument of Periapsis(deg)": 0.0,
        "Eccentricity": 0.0,
        "Inclination(deg)": 60.0,
        "Latitude(deg)": -0.09258845538332618,
        "Longitude(deg)": 35.08391653066786,
        "Mean Anomaly(deg)": -180.00000000000003,
        "RAAN(deg)": 315.0,
        "Satellite Name": "Test1 1397",
        "Satellite Number": 1397,
        "Semi-Major Axis(m)": 6980739.136638005,
        "Time(s)": 0
    },
    {
        "Altitude(m)": 605055.3319396626,
        "Argument of Periapsis(deg)": 0.00010418945913296404,
        "Eccentricity": 0.0,
        "Inclination(deg)": 60.0,
        "Latitude(deg)": -0.6329979501097358,
        "Longitude(deg)": 35.352042195898385,
        "Mean Anomaly(deg)": -179.37989385453818,
        "RAAN(deg)": 314.99957995086027,
        "Satellite Name": "Test1 1397",
        "Satellite Number": 1397,
        "Semi-Major Axis(m)": 6980739.136638005,
        "Time(s)": 10
    }
]